STARLINK-30760          
1 58187U 23167N   26068.52874204 -.00001663  00000+0 -52348-4 0  9995
2 58187  42.9998 144.0264 0001007 208.5156 151.5640 15.26739238130965
TEVEL2-9                
1 63237U 25052AD  26068.70229538  .00018694  00000+0  67240-3 0  9992
2 63237  97.4057 324.3929 0007990 124.2475 235.9522 15.28633834 54816
